KAHN 020251Z AUTO 30004KT 10SM CLR 24/19 A2980 RMK AO2 SLP085 T02390194 51017 TSNO