KATL 020252Z 33007KT 10SM FEW040 SCT250 25/20 A2984 RMK AO2 SLP094 T02500200 51017