KAVL 282054Z AUTO 15007KT 10SM CLR 29/18 A3025 RMK AO2 SLP215 T02890178 56014