KBHM 282053Z 07008G15KT 10SM FEW037 FEW050 32/22 A3011 RMK AO2 LTG DSNT S SLP188 T03170217 58021