KCLT 282052Z 17008KT 10SM FEW060 FEW250 34/19 A3017 RMK AO2 SLP205 T03390189 57021 $