KCSG 020251Z AUTO 28006KT 10SM CLR 24/21 A2982 RMK AO2 SLP094 60000 T02440206 53017