KFTY 020253Z 00000KT 10SM CLR 23/21 A2983 RMK AO2 SLP093 T02330206 51018