KGSO 282054Z 27006KT 10SM FEW031 BKN250 32/19 A3016 RMK AO2 SLP201 T03220194 56017