KLZU 020256Z AUTO 00000KT 10SM CLR 22/19 A2983 RMK AO2 SLP103 T02220194 51015