KMCN 020253Z AUTO 26004KT 10SM FEW120 24/22 A2980 RMK AO2 SLP086 T02390222 51017