KMGE 020256Z 31006KT 10SM FEW250 24/19 A2984 RMK AO2A SLP096 T02360191 51016 $