KMGR 150215Z AUTO 00000KT 10SM CLR 23/23 A3012 RMK AO2