KPDK 020253Z 32006KT 10SM CLR 23/19 A2984 RMK AO2 SLP087 T02330194 51016