KRYY 020250Z AUTO 00000KT 10SM CLR 23/20 A2985 RMK AO2 SLP097 T02330200 50016 $