KTYS 282053Z 06008KT 10SM SCT045 33/21 A3014 RMK AO2 SLP192 T03280211 56020 $