KVAD 150156Z AUTO 00000KT 10SM CLR 26/22 A3009 RMK AO2 SLP190 T02600218 $