KWRB 020256Z 00000KT 10SM CLR 24/23 A2979 RMK AO2A 52017 SLPNO